NORAD_CAT_ID,OBJECT_NAME,OBJECT_TYPE,EPOCH,MEAN_MOTION,ECCENTRICITY,INCLINATION,RA_OF_ASC_NODE,ARG_OF_PERICENTER,MEAN_ANOMALY,BSTAR,MEAN_MOTION_DOT,MEAN_MOTION_DDOT,TLE_LINE0,TLE_LINE1,TLE_LINE2,SEMIMAJOR_AXIS,PERIOD,APOGEE,PERIGEE,DECAYED
52466.0,STARLINK-3840,PAYLOAD,2022-12-20 19:51:26,15.08832301,0.0003106,53.2189,293.2803,24.3025,335.8113,-0.00099128,-0.00016028,0.0,0 STARLINK-3840,1 52466U 22049R   22354.82739147 -.00016028  00000-0 -99128-3 0  9998,2 52466  53.2189 293.2803 0003106  24.3025 335.8113 15.08832301 35043,6917.904,95.438,541.918,537.62,0.0
52466.0,STARLINK-3840,PAYLOAD,2022-12-21 05:23:45,15.08829826,0.0003135,53.218,291.4969,26.6551,333.4601,-0.00037193,-6.202e-05,0.0,0 STARLINK-3840,1 52466U 22049R   22355.22483781 -.00006202  00000-0 -37193-3 0  9990,2 52466  53.2180 291.4969 0003135  26.6551 333.4601 15.08829826 34940,6917.911,95.438,541.945,537.6080000000002,0.0
52466.0,STARLINK-3840,PAYLOAD,2022-12-22 02:03:48,15.08834028,0.0003147,53.2189,287.6318,27.2786,332.837,0.00064717,0.00010025,0.0,0 STARLINK-3840,1 52466U 22049R   22356.08597283  .00010025  00000-0  64717-3 0  9996,2 52466  53.2189 287.6318 0003147  27.2786 332.8370 15.08834028 35075,6917.899,95.438,541.941,537.587,0.0
52466.0,STARLINK-3840,PAYLOAD,2022-12-22 13:11:30,15.08835991,0.0003371,53.2193,285.5504,28.993,331.1249,0.00042685,6.511e-05,0.0,0 STARLINK-3840,1 52466U 22049R   22356.54965686  .00006511  00000-0  42685-3 0  9998,2 52466  53.2193 285.5504 0003371  28.9930 331.1249 15.08835991 35305,6917.893,95.438,542.09,537.4259999999998,0.0
52466.0,STARLINK-3840,PAYLOAD,2022-12-23 06:40:44,15.08850244,0.0003343,53.2184,282.2785,27.7934,332.3236,0.0005593999999999,8.629e-05,0.0,0 STARLINK-3840,1 52466U 22049R   22357.27829442  .00008629  00000-0  55940-3 0  9998,2 52466  53.2184 282.2785 0003343  27.7934 332.3236 15.08850244 35251,6917.849,95.437,542.0269999999998,537.401,0.0
52466.0,STARLINK-3840,PAYLOAD,2022-12-24 01:45:22,15.08850844,0.0003357,53.2183,278.711,28.831,331.2867,0.0003705,5.615e-05,0.0,0 STARLINK-3840,1 52466U 22049R   22358.07317493  .00005615  00000-0  37050-3 0  9999,2 52466  53.2183 278.7110 0003357  28.8310 331.2867 15.08850844 35532,6917.847,95.437,542.035,537.39,0.0
52466.0,STARLINK-3840,PAYLOAD,2022-12-24 11:17:40,15.08860509,0.0003308,53.2182,276.9268,28.735,331.3824,0.0007041,0.00010942,0.0,0 STARLINK-3840,1 52466U 22049R   22358.47061103  .00010942  00000-0  70410-3 0  9993,2 52466  53.2182 276.9268 0003308  28.7350 331.3824 15.08860509 35436,6917.818,95.436,541.971,537.394,0.0
52466.0,STARLINK-3840,PAYLOAD,2022-12-24 20:49:59,15.08838388,0.0003195,53.2182,275.1428,19.8853,340.2263,0.00044296,6.768e-05,0.0,0 STARLINK-3840,1 52466U 22049R   22358.86805326  .00006768  00000-0  44296-3 0  9993,2 52466  53.2182 275.1428 0003195  19.8853 340.2263 15.08838388 35658,6917.885,95.438,541.961,537.54,0.0
52466.0,STARLINK-3840,PAYLOAD,2022-12-25 01:36:09,15.08844686,0.0003245,53.2181,274.2508,24.2286,335.8858,3.1065e-06,-2.39e-06,0.0,0 STARLINK-3840,1 52466U 22049R   22359.06677192 -.00000239  00000-0  31065-5 0  9994,2 52466  53.2181 274.2508 0003245  24.2286 335.8858 15.08844686 35526,6917.866,95.437,541.976,537.486,0.0
52466.0,STARLINK-3840,PAYLOAD,2022-12-26 01:26:55,15.0885041,0.0003194,53.2175,269.7909,27.3879,332.7281,0.00042732,6.521e-05,0.0,0 STARLINK-3840,1 52466U 22049R   22360.06036927  .00006521  00000-0  42732-3 0  9991,2 52466  53.2175 269.7909 0003194  27.3879 332.7281 15.08850410 35830,6917.849,95.437,541.923,537.504,0.0
52466.0,STARLINK-3840,PAYLOAD,2022-12-26 10:59:15,15.08843198,0.0003284,53.2172,268.0072,27.8957,332.221,0.00038361,5.823e-05,0.0,0 STARLINK-3840,1 52466U 22049R   22360.45781666  .00005823  00000-0  38361-3 0  9998,2 52466  53.2172 268.0072 0003284  27.8957 332.2210 15.08843198 35733,6917.871,95.437,542.007,537.464,0.0
52466.0,STARLINK-3840,PAYLOAD,2022-12-26 17:20:47,15.08845134,0.0003392,53.2177,266.8182,30.3611,329.7577,0.00015581,2.192e-05,0.0,0 STARLINK-3840,1 52466U 22049R   22360.72277534  .00002192  00000-0  15581-3 0  9997,2 52466  53.2177 266.8182 0003392  30.3611 329.7577 15.08845134 35933,6917.865,95.437,542.076,537.383,0.0
52466.0,STARLINK-3840,PAYLOAD,2022-12-27 04:28:29,15.08849543,0.0003361,53.2174,264.7367,29.2952,330.8228,0.00031639,4.752e-05,0.0,0 STARLINK-3840,1 52466U 22049R   22361.18645385  .00004752  00000-0  31639-3 0  9997,2 52466  53.2174 264.7367 0003361  29.2952 330.8228 15.08849543 35847,6917.851,95.437,542.0409999999998,537.391,0.0
52466.0,STARLINK-3840,PAYLOAD,2022-12-28 02:43:52,15.08866022,0.0003536,53.2167,260.5722,30.8008,329.3191,0.00045153,6.91e-05,0.0,0 STARLINK-3840,1 52466U 22049R   22362.11380127  .00006910  00000-0  45153-3 0  9995,2 52466  53.2167 260.5722 0003536  30.8008 329.3191 15.08866022 36149,6917.801,95.436,542.112,537.22,0.0
52466.0,STARLINK-3840,PAYLOAD,2022-12-29 02:34:40,15.08833162,0.0002918999999999,53.2178,256.1113,19.5861,340.5243,-0.00011242,-2.077e-05,0.0,0 STARLINK-3840,1 52466U 22049R   22363.10740770 -.00002077  00000-0 -11242-3 0  9993,2 52466  53.2178 256.1113 0002919  19.5861 340.5243 15.08833162 36299,6917.901,95.438,541.786,537.747,0.0
52466.0,STARLINK-3840,PAYLOAD,2022-12-29 10:31:36,15.08823009,0.0003218999999999,53.2188,254.6249,15.1371,344.9717,-7.4594e-05,-1.475e-05,0.0,0 STARLINK-3840,1 52466U 22049R   22363.43861509 -.00001475  00000-0 -74594-4 0  9994,2 52466  53.2188 254.6249 0003219  15.1371 344.9717 15.08823009 36344,6917.932,95.439,542.024,537.57,0.0
52466.0,STARLINK-3840,PAYLOAD,2022-12-30 02:25:28,15.08827522,0.0003171,53.2164,251.6501,30.1439,329.9736,5.2645e-05,5.49e-06,0.0,0 STARLINK-3840,1 52466U 22049R   22364.10102616  .00000549  00000-0  52645-4 0  9998,2 52466  53.2164 251.6501 0003171  30.1439 329.9736 15.08827522 36286,6917.919,95.438,541.977,537.59,0.0
52466.0,STARLINK-3840,PAYLOAD,2022-12-30 19:54:43,15.08849014,0.0003233,53.2167,248.3801,28.6592,331.4578,0.00068829,0.00010686,0.0,0 STARLINK-3840,1 52466U 22049R   22364.82966549  .00010686  00000-0  68829-3 0  9993,2 52466  53.2167 248.3801 0003233  28.6592 331.4578 15.08849014 36558,6917.853,95.437,541.9540000000002,537.481,0.0
52466.0,STARLINK-3840,PAYLOAD,2022-12-31 02:16:15,15.08867761,0.0003337,53.2166,247.191,28.4134,331.7039,0.0011647,0.00018312,0.0,0 STARLINK-3840,1 52466U 22049R   22365.09462209  .00018312  00000-0  11647-2 0  9996,2 52466  53.2166 247.1910 0003337  28.4134 331.7039 15.08867761 36598,6917.795999999999,95.436,541.969,537.352,0.0
52466.0,STARLINK-3840,PAYLOAD,2022-12-31 16:34:42,15.08871862,0.000339,53.2166,244.5132,29.7154,330.403,0.00043945,6.719e-05,0.0,0 STARLINK-3840,1 52466U 22049R   22365.69077135  .00006719  00000-0  43945-3 0  9997,2 52466  53.2166 244.5132 0003390  29.7154 330.4030 15.08871862 36684,6917.783,95.436,541.993,537.303,0.0
52466.0,STARLINK-3840,PAYLOAD,2023-01-01 02:07:01,15.08850803,0.0003243999999999,53.2169,242.7307,26.3987,333.717,-0.00023243,-3.988e-05,0.0,0 STARLINK-3840,1 52466U 22049R   23001.08821007 -.00003988  00000-0 -23243-3 0  9999,2 52466  53.2169 242.7307 0003244  26.3987 333.7170 15.08850803 36746,6917.847,95.437,541.957,537.4680000000002,0.0
52466.0,STARLINK-3840,PAYLOAD,2023-01-01 08:28:34,15.08839143,0.0003344,53.2174,241.5404,27.1108,333.0058,-0.00017185,-3.023e-05,0.0,0 STARLINK-3840,1 52466U 22049R   23001.35317368 -.00003023  00000-0 -17185-3 0  9997,2 52466  53.2174 241.5404 0003344  27.1108 333.0058 15.08839143 36788,6917.8830000000025,95.438,542.061,537.435,0.0
52466.0,STARLINK-3840,PAYLOAD,2023-01-01 22:47:03,15.08824025,0.0003271,53.2164,238.8651,27.9923,332.1245,0.0001431,1.989e-05,0.0,0 STARLINK-3840,1 52466U 22049R   23001.94934279  .00001989  00000-0  14310-3 0  9992,2 52466  53.2164 238.8651 0003271  27.9923 332.1245 15.08824025 36716,6917.929,95.439,542.057,537.531,0.0
52466.0,STARLINK-3840,PAYLOAD,2023-01-02 01:57:49,15.08832623,0.0003299,53.2167,238.2702,28.0267,332.0902,-0.00010888,-2.021e-05,0.0,0 STARLINK-3840,1 52466U 22049R   23002.08182182 -.00002021  00000-0 -10888-3 0  9992,2 52466  53.2167 238.2702 0003299  28.0267 332.0902 15.08832623 36894,6917.903,95.438,542.05,537.486,0.0
52466.0,STARLINK-3840,PAYLOAD,2023-01-02 08:19:21,15.08838063,0.0003311,53.2172,237.0809,28.6719,331.4455,-2.8564e-06,-3.34e-06,0.0,0 STARLINK-3840,1 52466U 22049R   23002.34678182 -.00000334  00000-0 -28564-5 0  9998,2 52466  53.2172 237.0809 0003311  28.6719 331.4455 15.08838063 36775,6917.886,95.438,542.0419999999998,537.461,0.0
52466.0,STARLINK-3840,PAYLOAD,2023-01-02 22:37:50,15.08842913,0.000329,53.2169,234.4048,28.3636,331.7535,0.00039122,5.944e-05,0.0,0 STARLINK-3840,1 52466U 22049R   23002.94294378  .00005944  00000-0  39122-3 0  9995,2 52466  53.2169 234.4048 0003290  28.3636 331.7535 15.08842913 36869,6917.871,95.437,542.012,537.461,0.0
52466.0,STARLINK-3840,PAYLOAD,2023-01-03 01:48:36,15.08844789,0.0003258,53.2168,233.8101,30.3731,329.7449,0.0004663999999999,7.143e-05,0.0,0 STARLINK-3840,1 52466U 22049R   23003.07542398  .00007143  00000-0  46640-3 0  9994,2 52466  53.2168 233.8101 0003258  30.3731 329.7449 15.08844789 37049,6917.866,95.437,541.985,537.477,0.0
52466.0,STARLINK-3840,PAYLOAD,2023-01-03 14:31:42,15.08837604,0.0003266999999999,53.2161,231.4313,28.4382,331.6788,0.00019774,2.860000000000001e-05,0.0,0 STARLINK-3840,1 52466U 22049R   23003.60534804  .00002860  00000-0  19774-3 0  9995,2 52466  53.2161 231.4313 0003267  28.4382 331.6788 15.08837604 36967,6917.888000000001,95.438,542.013,537.493,0.0
52466.0,STARLINK-3840,PAYLOAD,2023-01-03 16:07:05,15.08837422,0.0003271,53.2161,231.1339,28.2455,331.8714,0.00018007,2.578e-05,0.0,0 STARLINK-3840,1 52466U 22049R   23003.67158831  .00002578  00000-0  18007-3 0  9998,2 52466  53.2161 231.1339 0003271  28.2455 331.8714 15.08837422 37135,6917.888000000001,95.438,542.016,537.49,0.0
